[{"OBJECT_NAME":"STARLINK-36046","OBJECT_ID":"2025-278V","EPOCH":"2026-03-09T11:16:24.250368","MEAN_MOTION":15.27588727,"ECCENTRICITY":0.00013477,"INCLINATION":43.0007,"RA_OF_ASC_NODE":115.7636,"ARG_OF_PERICENTER":277.2176,"MEAN_ANOMALY":82.8523,"EPHEMERIS_TYPE":0,"CLASSIFICATION_TYPE":"U","NORAD_CAT_ID":66810,"ELEMENT_SET_NO":999,"REV_AT_EPOCH":1517,"BSTAR":0.0011172214,"MEAN_MOTION_DOT":0.00030617,"MEAN_MOTION_DDOT":0},{"OBJECT_NAME":"ELECTRON KICK STAGE R\/B","OBJECT_ID":"2019-069C","EPOCH":"2026-03-09T21:46:17.810112","MEAN_MOTION":14.3018174,"ECCENTRICITY":0.04358653,"INCLINATION":87.9001,"RA_OF_ASC_NODE":206.3408,"ARG_OF_PERICENTER":37.1425,"MEAN_ANOMALY":325.9095,"EPHEMERIS_TYPE":0,"CLASSIFICATION_TYPE":"U","NORAD_CAT_ID":44636,"ELEMENT_SET_NO":999,"REV_AT_EPOCH":33098,"BSTAR":0.0004662077,"MEAN_MOTION_DOT":3.501e-5,"MEAN_MOTION_DDOT":0}]
